GSAT0101 (PRN E11)      
1 37846U 11060A   22204.03345709 -.00000086  00000+0  00000+0 0  9990
2 37846  57.0097  20.3671 0003721  54.0776 305.9803  1.70475066 66959
GSAT0102 (PRN E12)      
1 37847U 11060B   22204.54113823 -.00000085  00000+0  00000+0 0  9996
2 37847  57.0113  20.3547 0002225  18.3129 340.0231  1.70475542 66835
GSAT0103 (PRN E19)      
1 38857U 12055A   22202.31309137 -.00000005  00000+0  00000+0 0  9993
2 38857  55.1473 140.7686 0004376 271.1590  88.7610  1.70473744 60682
GSAT0104 (PRN E20)      
1 38858U 12055B   22204.04290190 -.00000015  00000+0  00000+0 0  9995
2 38858  55.1479 140.7225 0001854 275.0855  84.8592  1.70474064 60719
GSAT0201 (PRN E18)      
1 40128U 14050A   22205.40038056 -.00000128  00000+0  00000+0 0  9992
2 40128  50.2594 330.8111 1625324 125.3975 250.9124  1.85519259 51907
GSAT0202 (PRN E14)      
1 40129U 14050B   22204.04425690 -.00000133  00000+0  00000+0 0  9992
2 40129  50.2849 329.9267 1622531 126.1568 249.9907  1.85519817 54041
GSAT0203 (PRN E26)      
1 40544U 15017A   22205.57367262 -.00000083  00000+0  00000+0 0  9990
2 40544  56.8066  20.3549 0001476 210.3811 149.6373  1.70476138 44937
GSAT0204 (PRN E22)      
1 40545U 15017B   22205.23987765 -.00000083  00000+0  00000+0 0  9990
2 40545  56.8121  20.3767 0002072 181.7372 178.2891  1.70475811  7971
GSAT0205 (PRN E24)      
1 40889U 15045A   22203.83389319  .00000016  00000+0  00000+0 0  9992
2 40889  55.6002 260.9865 0003196 359.4062   0.6741  1.70473943 42713
GSAT0206 (PRN E30)      
1 40890U 15045B   22202.88149123  .00000009  00000+0  00000+0 0  9997
2 40890  55.5996 261.0088 0002053 322.1674  37.8950  1.70473886 42723
GSAT0209 (PRN E09)      
1 41174U 15079A   22203.05562808 -.00000010  00000+0  00000+0 0  9992
2 41174  55.1639 140.4520 0004643 312.4580  47.4714  1.70474072 40467
GSAT0208 (PRN E08)      
1 41175U 15079B   22203.86167138 -.00000015  00000+0  00000+0 0  9994
2 41175  55.1624 140.4284 0003957 312.6818  47.2515  1.70474094 40890
GSAT0211 (PRN E02)      
1 41549U 16030A   22205.15428644  .00000025  00000+0  00000+0 0  9993
2 41549  55.7440 260.8828 0003807 301.7652  58.2853  1.70475432 38393
GSAT0210 (PRN E01)      
1 41550U 16030B   22205.44690037  .00000027  00000+0  00000+0 0  9996
2 41550  55.7433 260.8761 0004021 270.4557  89.5873  1.70475483 38393
GSAT0207 (PRN E07)      
1 41859U 16069A   22205.10869129 -.00000019  00000+0  00000+0 0  9995
2 41859  54.8249 140.5678 0004701 299.8012  60.1156  1.70472766 35125
GSAT0212 (PRN E03)      
1 41860U 16069B   22203.20233902 -.00000011  00000+0  00000+0 0  9992
2 41860  54.8220 140.6182 0003530 322.1668  37.7764  1.70472738 35341
GSAT0213 (PRN E04)      
1 41861U 16069C   22204.15430844 -.00000016  00000+0  00000+0 0  9997
2 41861  54.8247 140.5970 0004328 279.1749  80.7417  1.70472866 35224
GSAT0214 (PRN E05)      
1 41862U 16069D   22203.12823677 -.00000011  00000+0  00000+0 0  9999
2 41862  54.8228 140.6199 0003547 284.1694  75.7594  1.70472789 35331
GSAT0215 (PRN E21)      
1 43055U 17079A   22202.44558063  .00000006  00000+0  00000+0 0  9998
2 43055  55.7213 260.7893 0003480 263.4398  96.5963  1.70474581 28664
GSAT0216 (PRN E25)      
1 43056U 17079B   22205.08412701  .00000025  00000+0  00000+0 0  9991
2 43056  55.7201 260.7164 0005236 269.8295  90.1978  1.70474718 28725
GSAT0217 (PRN E27)      
1 43057U 17079C   22205.30437499  .00000027  00000+0  00000+0 0  9990
2 43057  55.7180 260.7100 0004597 280.0585  79.9780  1.70474726 28712
GSAT0218 (PRN E31)      
1 43058U 17079D   22204.35123859  .00000020  00000+0  00000+0 0  9990
2 43058  55.7187 260.7336 0005637 267.0255  92.9934  1.70474657 28726
GSAT0221 (PRN E15)      
1 43564U 18060A   22204.83651737 -.00000084  00000+0  00000+0 0  9998
2 43564  57.1872  20.2000 0001330 274.3979  85.6138  1.70475990 24881
GSAT0222 (PRN E33)      
1 43565U 18060B   22205.05638592 -.00000083  00000+0  00000+0 0  9997
2 43565  57.1904  20.1947 0001020 302.6477  57.3692  1.70476004 24935
GSAT0219 (PRN E36)      
1 43566U 18060C   22203.51717906 -.00000086  00000+0  00000+0 0  9997
2 43566  57.1904  20.2382 0000704 314.3028  45.7177  1.70475958 24880
GSAT0220 (PRN E13)      
1 43567U 18060D   22204.91048447 -.00000083  00000+0  00000+0 0  9997
2 43567  57.1907  20.2004 0000822 273.4493  86.5682  1.70476003 24894
GSAT0223                
1 49809U 21116A   22202.41438377 -.00000088  00000+0  00000+0 0  9991
2 49809  57.1824  20.1657 0002793 140.4735 217.6493  1.70475990  3855
GSAT0224                
1 49810U 21116B   22204.87549237 -.00000084  00000+0  00000+0 0  9999
2 49810  57.1842  20.0975 0002610 127.6024  53.4401  1.70476174  3923
